{"type": "FeatureCollection", "features": [ {"type": "Feature", "properties": {"norad_id": 66604, "name": "STARLINK-35977", "group": "last-30-days", "lat": 21.938652628526917, "lon": 165.82484834684087, "alt_km": 440.8165136791922, "timestamp": "2025-12-21T18:54:57.221684+00:00", "meta": {"OBJECT_NAME": "STARLINK-35977", "OBJECT_ID": "2025-270S", "EPOCH": "2025-12-21T10:59:35.481984", "MEAN_MOTION": 15.40740127, "ECCENTRICITY": 0.00014375, "INCLINATION": 42.9997, "RA_OF_ASC_NODE": 142.1179, "ARG_OF_PERICENTER": 274.165, "MEAN_ANOMALY": 85.9042, "EPHEMERIS_TYPE": 0, "CLASSIFICATION_TYPE": "U", "NORAD_CAT_ID": 66604, "ELEMENT_SET_NO": 999, "REV_AT_EPOCH": 569, "BSTAR": 0.0010044548, "MEAN_MOTION_DOT": 0.00041942, "MEAN_MOTION_DDOT": 0}, "tle": {"line1": "1 66604U 25270S   25355.45804956  .00041942  00000+0  10045-2 0  9990", "line2": "2 66604  42.9997 142.1179 0001437 274.1650  85.9042 15.40740127  5698"}}, "geometry": {"type": "Point", "coordinates": [165.82484834684087, 21.938652628526917]}}, {"type": "Feature", "properties": {"norad_id": 66605, "name": "STARLINK-36052", "group": "last-30-days", "lat": 40.47780553652197, "lon": -106.28637700118955, "alt_km": 438.8877312129043, "timestamp": "2025-12-21T18:54:57.221694+00:00", "meta": {"OBJECT_NAME": "STARLINK-36052", "OBJECT_ID": "2025-270T", "EPOCH": "2025-12-21T14:00:01.999872", "MEAN_MOTION": 15.40715768, "ECCENTRICITY": 0.00019663, "INCLINATION": 42.9998, "RA_OF_ASC_NODE": 141.2176, "ARG_OF_PERICENTER": 283.2565, "MEAN_ANOMALY": 127.184, "EPHEMERIS_TYPE": 0, "CLASSIFICATION_TYPE": "U", "NORAD_CAT_ID": 66605, "ELEMENT_SET_NO": 999, "REV_AT_EPOCH": 582, "BSTAR": 0.00018046872, "MEAN_MOTION_DOT": 7.246e-05, "MEAN_MOTION_DDOT": 0}, "tle": {"line1": "1 66605U 25270T   25355.58335648  .00007246  00000+0  18047-3 0  9992", "line2": "2 66605  42.9998 141.2176 0001966 283.2565 127.1840 15.40715768  5823"}}, "geometry": {"type": "Point", "coordinates": [-106.28637700118955, 40.47780553652197]}}, {"type": "Feature", "properties": {"norad_id": 66606, "name": "STARLINK-36063", "group": "last-30-days", "lat": -33.92624344264757, "lon": 5.929410997759197, "alt_km": 416.53443525676084, "timestamp": "2025-12-21T18:54:57.221707+00:00", "meta": {"OBJECT_NAME": "STARLINK-36063", "OBJECT_ID": "2025-270U", "EPOCH": "2025-12-19T11:48:20.511648", "MEAN_MOTION": 15.50662232, "ECCENTRICITY": 0.0001816, "INCLINATION": 42.9987, "RA_OF_ASC_NODE": 153.1595, "ARG_OF_PERICENTER": 282.0515, "MEAN_ANOMALY": 78.0141, "EPHEMERIS_TYPE": 0, "CLASSIFICATION_TYPE": "U", "NORAD_CAT_ID": 66606, "ELEMENT_SET_NO": 999, "REV_AT_EPOCH": 539, "BSTAR": 0.00079676, "MEAN_MOTION_DOT": 0.0004682, "MEAN_MOTION_DDOT": 0}, "tle": {"line1": "1 66606U 25270U   25353.49190407  .00046820  00000+0  79676-3 0  9999", "line2": "2 66606  42.9987 153.1595 0001816 282.0515  78.0141 15.50662232  5393"}}, "geometry": {"type": "Point", "coordinates": [5.929410997759197, -33.92624344264757]}}, {"type": "Feature", "properties": {"norad_id": 66607, "name": "STARLINK-35993", "group": "last-30-days", "lat": 36.09945851737342, "lon": -91.48595637152559, "alt_km": 439.2572112106527, "timestamp": "2025-12-21T18:54:57.221718+00:00", "meta": {"OBJECT_NAME": "STARLINK-35993", "OBJECT_ID": "2025-270V", "EPOCH": "2025-12-21T14:00:01.999872", "MEAN_MOTION": 15.40721473, "ECCENTRICITY": 0.00017297, "INCLINATION": 42.9997, "RA_OF_ASC_NODE": 141.1876, "ARG_OF_PERICENTER": 270.1614, "MEAN_ANOMALY": 152.6847, "EPHEMERIS_TYPE": 0, "CLASSIFICATION_TYPE": "U", "NORAD_CAT_ID": 66607, "ELEMENT_SET_NO": 999, "REV_AT_EPOCH": 572, "BSTAR": 0.0001279484, "MEAN_MOTION_DOT": 5.048e-05, "MEAN_MOTION_DDOT": 0}, "tle": {"line1": "1 66607U 25270V   25355.58335648  .00005048  00000+0  12795-3 0  9996", "line2": "2 66607  42.9997 141.1876 0001729 270.1614 152.6847 15.40721473  5726"}}, "geometry": {"type": "Point", "coordinates": [-91.48595637152559, 36.09945851737342]}}, {"type": "Feature", "properties": {"norad_id": 66608, "name": "STARLINK-36036", "group": "last-30-days", "lat": -34.684573246979994, "lon": 7.675729070673438, "alt_km": 416.38508506419385, "timestamp": "2025-12-21T18:54:57.221728+00:00", "meta": {"OBJECT_NAME": "STARLINK-36036", "OBJECT_ID": "2025-270W", "EPOCH": "2025-12-19T11:47:53.026080", "MEAN_MOTION": 15.50612484, "ECCENTRICITY": 0.0001538, "INCLINATION": 42.999, "RA_OF_ASC_NODE": 153.1562, "ARG_OF_PERICENTER": 266.4602, "MEAN_ANOMALY": 93.6082, "EPHEMERIS_TYPE": 0, "CLASSIFICATION_TYPE": "U", "NORAD_CAT_ID": 66608, "ELEMENT_SET_NO": 999, "REV_AT_EPOCH": 523, "BSTAR": 0.0010303, "MEAN_MOTION_DOT": 0.00060643, "MEAN_MOTION_DDOT": 0}, "tle": {"line1": "1 66608U 25270W   25353.49158595  .00060643  00000+0  10303-2 0  9993", "line2": "2 66608  42.9990 153.1562 0001538 266.4602  93.6082 15.50612484  5231"}}, "geometry": {"type": "Point", "coordinates": [7.675729070673438, -34.684573246979994]}}, {"type": "Feature", "properties": {"norad_id": 66609, "name": "STARLINK-36034", "group": "last-30-days", "lat": -34.60475477910411, "lon": 7.489635308860206, "alt_km": 418.6876651523653, "timestamp": "2025-12-21T18:54:57.221738+00:00", "meta": {"OBJECT_NAME": "STARLINK-36034", "OBJECT_ID": "2025-270X", "EPOCH": "2025-12-20T17:09:50.095296", "MEAN_MOTION": 15.50362019, "ECCENTRICITY": 0.00048554, "INCLINATION": 42.9992, "RA_OF_ASC_NODE": 145.9955, "ARG_OF_PERICENTER": 131.0653, "MEAN_ANOMALY": 229.0628, "EPHEMERIS_TYPE": 0, "CLASSIFICATION_TYPE": "U", "NORAD_CAT_ID": 66609, "ELEMENT_SET_NO": 999, "REV_AT_EPOCH": 542, "BSTAR": 0.0011127835, "MEAN_MOTION_DOT": 0.00065002, "MEAN_MOTION_DDOT": 0}, "tle": {"line1": "1 66609U 25270X   25354.71516314  .00065002  00000+0  11128-2 0  9997", "line2": "2 66609  42.9992 145.9955 0004855 131.0653 229.0628 15.50362019  5425"}}, "geometry": {"type": "Point", "coordinates": [7.489635308860206, -34.60475477910411]}}, {"type": "Feature", "properties": {"norad_id": 66610, "name": "STARLINK-35680", "group": "last-30-days", "lat": 22.945005120948455, "lon": -67.07523799543156, "alt_km": 441.44934760408705, "timestamp": "2025-12-21T18:54:57.221749+00:00", "meta": {"OBJECT_NAME": "STARLINK-35680", "OBJECT_ID": "2025-270Y", "EPOCH": "2025-12-21T14:00:01.999872", "MEAN_MOTION": 15.40711247, "ECCENTRICITY": 0.00019761, "INCLINATION": 42.9994, "RA_OF_ASC_NODE": 141.1259, "ARG_OF_PERICENTER": 286.8241, "MEAN_ANOMALY": 160.9243, "EPHEMERIS_TYPE": 0, "CLASSIFICATION_TYPE": "U", "NORAD_CAT_ID": 66610, "ELEMENT_SET_NO": 999, "REV_AT_EPOCH": 592, "BSTAR": 0.00014027093, "MEAN_MOTION_DOT": 5.562e-05, "MEAN_MOTION_DDOT": 0}, "tle": {"line1": "1 66610U 25270Y   25355.58335648  .00005562  00000+0  14027-3 0  9991", "line2": "2 66610  42.9994 141.1259 0001976 286.8241 160.9243 15.40711247  5928"}}, "geometry": {"type": "Point", "coordinates": [-67.07523799543156, 22.945005120948455]}}, {"type": "Feature", "properties": {"norad_id": 66611, "name": "STARLINK-35583", "group": "last-30-days", "lat": 6.722562999531942, "lon": -47.38183890816852, "alt_km": 443.45723818421175, "timestamp": "2025-12-21T18:54:57.221759+00:00", "meta": {"OBJECT_NAME": "STARLINK-35583", "OBJECT_ID": "2025-270Z", "EPOCH": "2025-12-21T14:00:01.999872", "MEAN_MOTION": 15.40680038, "ECCENTRICITY": 0.00015728, "INCLINATION": 42.9995, "RA_OF_ASC_NODE": 141.0657, "ARG_OF_PERICENTER": 287.2599, "MEAN_ANOMALY": 185.4891, "EPHEMERIS_TYPE": 0, "CLASSIFICATION_TYPE": "U", "NORAD_CAT_ID": 66611, "ELEMENT_SET_NO": 999, "REV_AT_EPOCH": 592, "BSTAR": 0.00022638495, "MEAN_MOTION_DOT": 9.158e-05, "MEAN_MOTION_DDOT": 0}, "tle": {"line1": "1 66611U 25270Z   25355.58335648  .00009158  00000+0  22638-3 0  9994", "line2": "2 66611  42.9995 141.0657 0001572 287.2599 185.4891 15.40680038  5928"}}, "geometry": {"type": "Point", "coordinates": [-47.38183890816852, 6.722562999531942]}}, {"type": "Feature", "properties": {"norad_id": 66612, "name": "STARLINK-36039", "group": "last-30-days", "lat": -41.89780651892467, "lon": 66.16348947174373, "alt_km": 446.3072318510094, "timestamp": "2025-12-21T18:54:57.221770+00:00", "meta": {"OBJECT_NAME": "STARLINK-36039", "OBJECT_ID": "2025-270AA", "EPOCH": "2025-12-20T10:34:58.712448", "MEAN_MOTION": 15.40726185, "ECCENTRICITY": 0.00016577, "INCLINATION": 43.0005, "RA_OF_ASC_NODE": 148.2468, "ARG_OF_PERICENTER": 221.4551, "MEAN_ANOMALY": 138.618, "EPHEMERIS_TYPE": 0, "CLASSIFICATION_TYPE": "U", "NORAD_CAT_ID": 66612, "ELEMENT_SET_NO": 999, "REV_AT_EPOCH": 553, "BSTAR": 0.00084609538, "MEAN_MOTION_DOT": 0.00035234, "MEAN_MOTION_DDOT": 0}, "tle": {"line1": "1 66612U 25270AA  25354.44095732  .00035234  00000+0  84610-3 0  9998", "line2": "2 66612  43.0005 148.2468 0001657 221.4551 138.6180 15.40726185  5536"}}, "geometry": {"type": "Point", "coordinates": [66.16348947174373, -41.89780651892467]}}, {"type": "Feature", "properties": {"norad_id": 66613, "name": "STARLINK-36037", "group": "last-30-days", "lat": -33.40536362477264, "lon": 95.36972428125976, "alt_km": 446.4932746498098, "timestamp": "2025-12-21T18:54:57.221780+00:00", "meta": {"OBJECT_NAME": "STARLINK-36037", "OBJECT_ID": "2025-270AB", "EPOCH": "2025-12-21T11:22:10.567488", "MEAN_MOTION": 15.40728039, "ECCENTRICITY": 0.00012938, "INCLINATION": 42.9987, "RA_OF_ASC_NODE": 142.2364, "ARG_OF_PERICENTER": 234.5292, "MEAN_ANOMALY": 125.5444, "EPHEMERIS_TYPE": 0, "CLASSIFICATION_TYPE": "U", "NORAD_CAT_ID": 66613, "ELEMENT_SET_NO": 999, "REV_AT_EPOCH": 569, "BSTAR": 0.00091489288, "MEAN_MOTION_DOT": 0.0003814, "MEAN_MOTION_DDOT": 0}, "tle": {"line1": "1 66613U 25270AB  25355.47373342  .00038140  00000+0  91489-3 0  9990", "line2": "2 66613  42.9987 142.2364 0001293 234.5292 125.5444 15.40728039  5691"}}, "geometry": {"type": "Point", "coordinates": [95.36972428125976, -33.40536362477264]}}]}